OPS 6582 (TRANSIT 5B-5) 
1 00965U 64083D   23246.70334691  .00000070  00000+0  85268-4 0  9990
2 00965  90.0391 196.9823 0041873  16.0305  35.6662 13.56835528906199
OSCAR 7 (AO-7)          
1 07530U 74089B   23246.80292080 -.00000043  00000+0  19747-4 0  9998
2 07530 101.9546 234.0280 0011841 274.1501 207.0540 12.53666605233261
UOSAT 2 (UO-11)         
1 14781U 84021B   23246.68945381  .00001904  00000+0  22810-3 0  9996
2 14781  97.6654 220.6229 0006822 312.6745  47.3895 14.85194887126795
NOAA 9                  
1 15427U 84123A   23246.75387881  .00000181  00000+0  11441-3 0  9994
2 15427  99.0968 232.4897 0014761 354.1051  55.2707 14.16405259999599
LUSAT (LO-19)           
1 20442U 90005G   23246.21787027  .00000262  00000+0  11187-3 0  9997
2 20442  98.8517 224.4293 0010893 314.3369  45.6921 14.33306950756524
ITAMSAT (IO-26)         
1 22826U 93061D   23246.39999544  .00000221  00000+0  10207-3 0  9995
2 22826  98.8295 290.3892 0008990 178.5720 181.5489 14.30704575561747
RADIO ROSTO (RS-15)     
1 23439U 94085A   23246.49247384 -.00000047  00000+0 -11501-3 0  9998
2 23439  64.8160 149.0428 0160164 196.4340 163.1354 11.27575458181155
JAS-2 (FO-29)           
1 24278U 96046B   23246.78884155 -.00000005  00000+0  31733-4 0  9997
2 24278  98.5369 214.6630 0349598 212.8864 145.0086 13.53153138335813
NOAA 15                 
1 25338U 98030A   23246.72314141  .00000243  00000+0  11884-3 0  9994
2 25338  98.6023 274.4234 0011542  85.7584 274.4915 14.26382489316455
TECHSAT 1B (GO-32)      
1 25397U 98043D   23246.57100994  .00000125  00000+0  74478-4 0  9993
2 25397  98.8759 204.7298 0000186 288.9976  71.1182 14.23904112306488
ISS (ZARYA)             
1 25544U 98067A   23246.98284133  .00013126  00000+0  23590-3 0  9999
2 25544  51.6432 298.1883 0005520  25.8379  34.9380 15.50196644414016
ORSTED                  
1 25635U 99008B   23246.61598433  .00001345  00000+0  32161-3 0  9991
2 25635  96.4741  12.7183 0136054 205.1419 154.3116 14.49195613294444
PHASE 3D (AO-40)        
1 26609U 00072B   23244.96108076 -.00000373  00000+0  00000+0 0  9996
2 26609   6.1973 167.9028 7915517 194.0573 112.1127  1.25587353104849
PCSAT (NO-44)           
1 26931U 01043C   23246.41261179  .00000240  00000+0  12271-3 0  9998
2 26931  67.0534 354.8329 0007566 260.5664  99.4582 14.30973799144777
SAUDISAT 1C (SO-50)     
1 27607U 02058C   23246.41353198  .00002508  00000+0  35931-3 0  9996
2 27607  64.5570  25.0613 0060915 208.2871 151.4921 14.77554121113787
CUTE-1 (CO-55)          
1 27844U 03031E   23246.30756287  .00000460  00000+0  22414-3 0  9992
2 27844  98.6801 252.4283 0008534 258.2237 101.7984 14.22861569 46840
CUBESAT XI-IV (CO-57)   
1 27848U 03031J   23246.76790114  .00000358  00000+0  18076-3 0  9998
2 27848  98.6837 253.2670 0008452 274.1033  85.9179 14.22361436 46726
MOZHAYETS 4 (RS-22)     
1 27939U 03042A   23246.76538226  .00001619  00000+0  28695-3 0  9994
2 27939  98.2542  34.3733 0011353 246.2511 220.7391 14.68628428 66071
INMARSAT 4-F1           
1 28628U 05009A   23246.55674258 -.00000273  00000+0  00000+0 0  9990
2 28628   3.9805  39.1114 0002919 136.7917 150.4578  1.00272234 67461
NOAA 18                 
1 28654U 05018A   23246.73842398  .00000265  00000+0  16583-3 0  9998
2 28654  98.9050 320.7340 0014854 154.3804 205.8107 14.12998481942661
CUBESAT XI-V            
1 28895U 05043F   23246.30029099  .00002106  00000+0  39292-3 0  9999
2 28895  98.1636  17.8198 0016216 182.0950 178.0188 14.65956017952252
METOP-A                 
1 29499U 06044A   23246.56129705  .00002464  00000+0  32370-3 0  9992
2 29499  98.3934 309.1806 0194175  56.4736  41.6581 14.68909616875685
CARTOSAT-2 (IRS-P7)     
1 29710U 07001B   23246.37361242  .00053072  00000+0  56548-3 0  9999
2 29710  97.9020  31.8428 0083251 275.4424  83.7338 15.59489934904463
CAPE-1                  
1 31130U 07012P   23246.30068612  .00002766  00000+0  56969-3 0  9999
2 31130  98.3115 190.3843 0092913   1.5106 358.6356 14.58651112869612
CARTOSAT-2A             
1 32783U 08021A   23246.72085131  .00001188  00000+0  16892-3 0  9994
2 32783  97.9094 305.8852 0012791 166.7369 193.4181 14.78680689828521
CUTE-1.7+APD II (CO-65) 
1 32785U 08021C   23246.36415259  .00004733  00000+0  46106-3 0  9994
2 32785  97.7133 210.7068 0011389 195.2667 164.8210 14.92916040832482
COMPASS-1               
1 32787U 08021E   23246.39879223  .00011943  00000+0  89745-3 0  9991
2 32787  97.5924 221.1527 0015406 104.2800 256.0137 15.02638246834394
AAUSAT-II               
1 32788U 08021F   23246.35466580  .00015343  00000+0  10669-2 0  9992
2 32788  97.5672 224.1441 0010065  89.8926 270.3454 15.05551534834866
DELFI-C3 (DO-64)        
1 32789U 08021G   23246.02999429  .00114514  00000+0  21043-2 0  9998
2 32789  97.2959 267.5900 0007559 162.8208 197.3300 15.48784717839380
SEEDS II (CO-66)        
1 32791U 08021J   23246.66770487  .00008214  00000+0  70468-3 0  9997
2 32791  97.6634 216.3355 0013372 139.6939 220.5277 14.97681032833482
YUBILEINY (RS-30)       
1 32953U 08025A   23246.75448579  .00000016  00000+0  44647-4 0  9998
2 32953  82.4979 268.2259 0019712  17.1531 343.0211 12.43128575693410
FENGYUN 3A              
1 32958U 08026A   23246.62672574  .00000201  00000+0  11674-3 0  9993
2 32958  98.5613 197.7259 0008629 175.0302 185.0962 14.18909662791187
PRISM (HITOMI)          
1 33493U 09002B   23246.78551149  .00013440  00000+0  86941-3 0  9992
2 33493  98.2445 266.9095 0017224 138.0925 222.1623 15.08204664795596
STARS (KUKAI)           
1 33498U 09002G   23246.31468747  .00003815  00000+0  48159-3 0  9991
2 33498  98.1267 150.4304 0008533 260.8494  99.1753 14.82508086786985
KKS-1 (KISEKI)          
1 33499U 09002H   23246.76693650  .00001735  00000+0  25185-3 0  9997
2 33499  98.1616 140.0610 0008337 345.3145  14.7821 14.77314905786093
NOAA 19                 
1 33591U 09005A   23246.72200892  .00000240  00000+0  15367-3 0  9992
2 33591  99.0933 293.8800 0014172  26.2416 333.9471 14.12814321751035
SWISSCUBE               
1 35932U 09051B   23246.43501375  .00001385  00000+0  31241-3 0  9992
2 35932  98.5094 118.6133 0008446 119.6408 240.5632 14.57922652740616
BEESAT-1                
1 35933U 09051C   23246.19658458  .00001178  00000+0  26803-3 0  9999
2 35933  98.5021 119.6169 0006522 129.4111 230.7665 14.57805468740656
ITUPSAT1                
1 35935U 09051E   23246.35669025  .00001092  00000+0  25450-3 0  9993
2 35935  98.5119 119.6963 0008708 136.2890 223.8998 14.56841615740347
XIWANG-1 (HOPE-1)       
1 36122U 09072B   23246.59620664 -.00000030  00000+0  33544-4 0  9993
2 36122 100.2458 208.0243 0008072  46.3771 313.8010 13.16386619659112
CARTOSAT-2B             
1 36795U 10035A   23246.75794077  .00001115  00000+0  15883-3 0  9997
2 36795  97.9038 305.7639 0012010 246.2571 113.7381 14.78716207709577
TISAT 1                 
1 36799U 10035E   23246.36570472  .00006771  00000+0  59100-3 0  9992
2 36799  98.1235 119.0595 0012168  76.3739 283.8836 14.97114950713928
FENGYUN 3B              
1 37214U 10059A   23246.81826944  .00000105  00000+0  78792-4 0  9993
2 37214  99.0830 265.5130 0022182 181.6336 351.2542 14.14371321663625
JUGNU                   
1 37839U 11058B   23246.64089191  .00000495  00000+0  12111-3 0  9996
2 37839  19.9623   6.9237 0018932   4.6865  23.8790 14.13000462615003
SRMSAT                  
1 37841U 11058D   23246.31646770  .00000501  00000+0  12996-3 0  9994
2 37841  19.9722  97.6322 0011860 170.2607 346.8486 14.10935621613857
M-CUBED & EXP-1 PRIME   
1 37855U 11061F   23246.47819461  .00031450  00000+0  87640-3 0  9994
2 37855 101.7099 252.6230 0110243 159.0430 201.5366 15.30787512648527
HORYU-2                 
1 38340U 12025D   23246.20985482  .00003575  00000+0  49052-3 0  9995
2 38340  98.1699 336.0816 0009741 243.1542 116.8673 14.79022156597629
METOP-B                 
1 38771U 12049A   23246.80017443  .00000173  00000+0  98833-4 0  9991
2 38771  98.6719 304.8352 0001298 105.0396   4.9647 14.21509227568717
SARAL                   
1 39086U 13009A   23246.55301821  .00000157  00000+0  74247-4 0  9991
2 39086  98.5498  70.7105 0002954  67.0057 293.1438 14.32253322549900
AAUSAT 3                
1 39087U 13009B   23246.48043799  .00000890  00000+0  31463-3 0  9997
2 39087  98.3800  79.5528 0012802  28.8783 331.3109 14.36938593551172
STRAND-1                
1 39090U 13009E   23246.27128448  .00000455  00000+0  17229-3 0  9994
2 39090  98.3877  77.4889 0009678  37.8659 322.3206 14.35674414550924
BRITE-AUSTRIA           
1 39091U 13009F   23246.41617258  .00000252  00000+0  10214-3 0  9995
2 39091  98.3909  76.8683 0011243  43.1358 317.0707 14.35536706550976
UNIBRITE                
1 39092U 13009G   23246.40775221  .00000280  00000+0  11212-3 0  9990
2 39092  98.3946  76.7143 0010076  39.5491 320.6428 14.35410056550922
BEESAT-3                
1 39135U 13015F   23246.32730068  .00078984  00000+0  13270-2 0  9997
2 39135  64.8542  73.2793 0017615 247.7306 112.1969 15.51146723574024
BEESAT-2                
1 39136U 13015G   23246.36731219  .00059468  00000+0  11655-2 0  9992
2 39136  64.8641  86.2951 0027713 263.1438  96.6549 15.46600869573741
NEE-01 PEGASO           
1 39151U 13018B   23246.52366169  .00003291  00000+0  40889-3 0  9993
2 39151  98.0152 356.8737 0014763 255.8014 104.1559 14.83211593559305
CUBEBUG-1 (CAPITAN BETO)
1 39153U 13018D   23246.59689538  .00004087  00000+0  49233-3 0  9996
2 39153  98.0464   3.4261 0014562 248.6019 111.3642 14.84357233559421
ESTCUBE 1               
1 39161U 13021C   23246.46475418  .00002270  00000+0  34731-3 0  9994
2 39161  97.8663 316.5028 0010566  80.9693 279.2712 14.74637578554667
FENGYUN 3C              
1 39260U 13052A   23246.74459674  .00000112  00000+0  77361-4 0  9995
2 39260  98.4293 256.6834 0012320  77.9985 282.2571 14.16070688514653
